start=new Date('2023-06-12T00:00:00.000Z').valueOf();
sats=[{"RCS_SIZE":"LARGE","TLE_LINE2":"2 46578  53.0538 323.8764 0000813  61.7145 298.3926 15.06438129148938","OBJECT_NAME":"STARLINK-1683","GP_ID":"233723142","EPHEMERIS_TYPE":"0","EPOCH":"2023-06-11T21:35:45.308544","REF_FRAME":"TEME","OBJECT_TYPE":"PAYLOAD","MEAN_ELEMENT_THEORY":"SGP4","FILE":"3930737","ARG_OF_PERICENTER":"61.7145","BSTAR":"0.00173350000000","PERIOD":"95.590","MEAN_MOTION":"15.06438129","DECAY_DATE":null,"CLASSIFICATION_TYPE":"U","SEMIMAJOR_AXIS":"6925.232","INCLINATION":"53.0538","ELEMENT_SET_NO":"999","TLE_LINE1":"1 46578U 20070AY  23162.89982996  .00025660  00000-0  17335-2 0  9993","COUNTRY_CODE":"US","APOAPSIS":"547.660","SITE":"AFETR","REV_AT_EPOCH":"14893","TIME_SYSTEM":"UTC","PERIAPSIS":"546.534","RA_OF_ASC_NODE":"323.8764","MEAN_ANOMALY":"298.3926","ECCENTRICITY":"0.00008130","MEAN_MOTION_DOT":"0.00025660","MEAN_MOTION_DDOT":"0.0000000000000","OBJECT_ID":"2020-070AY","CENTER_NAME":"EARTH","NORAD_CAT_ID":"46578","LAUNCH_DATE":"2020-10-06"},{"RA_OF_ASC_NODE":"339.4022","MEAN_ANOMALY":"290.7651","PERIAPSIS":"546.478","MEAN_MOTION_DOT":"0.00025411","ECCENTRICITY":"0.00009220","OBJECT_ID":"2020-070AZ","CENTER_NAME":"EARTH","MEAN_MOTION_DDOT":"0.0000000000000","LAUNCH_DATE":"2020-10-06","NORAD_CAT_ID":"46579","CLASSIFICATION_TYPE":"U","SEMIMAJOR_AXIS":"6925.252","INCLINATION":"53.0555","DECAY_DATE":null,"APOAPSIS":"547.755","TLE_LINE1":"1 46579U 20070AZ  23162.77128201  .00025411  00000-0  17172-2 0  9995","ELEMENT_SET_NO":"999","COUNTRY_CODE":"US","SITE":"AFETR","REV_AT_EPOCH":"14870","TIME_SYSTEM":"UTC","ARG_OF_PERICENTER":"69.3437","BSTAR":"0.00171720000000","PERIOD":"95.590","MEAN_MOTION":"15.06431661","RCS_SIZE":"LARGE","GP_ID":"233723890","TLE_LINE2":"2 46579  53.0555 339.4022 0000922  69.3437 290.7651 15.06431661148707","OBJECT_NAME":"STARLINK-1705","EPOCH":"2023-06-11T18:30:38.765664","EPHEMERIS_TYPE":"0","OBJECT_TYPE":"PAYLOAD","MEAN_ELEMENT_THEORY":"SGP4","FILE":"3930737","REF_FRAME":"TEME"},{"GP_ID":"233723639","TLE_LINE2":"2 46580  53.0550 339.5031 0000752  72.0251 288.0820 15.06418905148705","OBJECT_NAME":"STARLINK-1708","RCS_SIZE":"LARGE","OBJECT_TYPE":"PAYLOAD","FILE":"3930737","MEAN_ELEMENT_THEORY":"SGP4","REF_FRAME":"TEME","EPOCH":"2023-06-11T17:58:48.094464","EPHEMERIS_TYPE":"0","ARG_OF_PERICENTER":"72.0251","BSTAR":"0.00160380000000","MEAN_MOTION":"15.06418905","PERIOD":"95.591","APOAPSIS":"547.676","ELEMENT_SET_NO":"999","TLE_LINE1":"1 46580U 20070BA  23162.74916776  .00023700  00000-0  16038-2 0  9995","COUNTRY_CODE":"US","SEMIMAJOR_AXIS":"6925.291","CLASSIFICATION_TYPE":"U","INCLINATION":"53.0550","DECAY_DATE":null,"TIME_SYSTEM":"UTC","SITE":"AFETR","REV_AT_EPOCH":"14870","MEAN_MOTION_DOT":"0.00023700","ECCENTRICITY":"0.00007520","RA_OF_ASC_NODE":"339.5031","MEAN_ANOMALY":"288.0820","PERIAPSIS":"546.635","LAUNCH_DATE":"2020-10-06","NORAD_CAT_ID":"46580","OBJECT_ID":"2020-070BA","CENTER_NAME":"EARTH","MEAN_MOTION_DDOT":"0.0000000000000"},{"TIME_SYSTEM":"UTC","SITE":"AFETR","REV_AT_EPOCH":"14878","APOAPSIS":"547.857","ELEMENT_SET_NO":"999","TLE_LINE1":"1 46581U 20070BB  23162.84730637  .00017742  00000-0  12063-2 0  9990","COUNTRY_CODE":"US","SEMIMAJOR_AXIS":"6925.284","CLASSIFICATION_TYPE":"U","INCLINATION":"53.0542","DECAY_DATE":null,"LAUNCH_DATE":"2020-10-06","NORAD_CAT_ID":"46581","OBJECT_ID":"2020-070BB","CENTER_NAME":"EARTH","MEAN_MOTION_DDOT":"0.0000000000000","MEAN_MOTION_DOT":"0.00017742","ECCENTRICITY":"0.00010230","RA_OF_ASC_NODE":"334.0666","MEAN_ANOMALY":"283.8655","PERIAPSIS":"546.440","OBJECT_TYPE":"PAYLOAD","FILE":"3930737","MEAN_ELEMENT_THEORY":"SGP4","REF_FRAME":"TEME","EPOCH":"2023-06-11T20:20:07.270368","EPHEMERIS_TYPE":"0","GP_ID":"233722892","TLE_LINE2":"2 46581  53.0542 334.0666 0001023  76.2447 283.8655 15.06421111148786","OBJECT_NAME":"STARLINK-1712","RCS_SIZE":"LARGE","MEAN_MOTION":"15.06421111","PERIOD":"95.591","ARG_OF_PERICENTER":"76.2447","BSTAR":"0.00120630000000"},{"OBJECT_ID":"2020-070BC","CENTER_NAME":"EARTH","MEAN_MOTION_DDOT":"0.0000000000000","LAUNCH_DATE":"2020-10-06","NORAD_CAT_ID":"46582","RA_OF_ASC_NODE":"334.4245","MEAN_ANOMALY":"275.4602","PERIAPSIS":"546.326","MEAN_MOTION_DOT":"0.00022954","ECCENTRICITY":"0.00011440","SITE":"AFETR","REV_AT_EPOCH":"14877","TIME_SYSTEM":"UTC","CLASSIFICATION_TYPE":"U","SEMIMAJOR_AXIS":"6925.254","INCLINATION":"53.0551","DECAY_DATE":null,"APOAPSIS":"547.911","ELEMENT_SET_NO":"999","TLE_LINE1":"1 46582U 20070BC  23162.76621123  .00022954  00000-0  15536-2 0  9990","COUNTRY_CODE":"US","PERIOD":"95.590","MEAN_MOTION":"15.06430941","ARG_OF_PERICENTER":"84.6518","BSTAR":"0.00155360000000","EPOCH":"2023-06-11T18:23:20.650272","EPHEMERIS_TYPE":"0","OBJECT_TYPE":"PAYLOAD","MEAN_ELEMENT_THEORY":"SGP4","FILE":"3930737","REF_FRAME":"TEME","RCS_SIZE":"LARGE","GP_ID":"233722642","OBJECT_NAME":"STARLINK-1728","TLE_LINE2":"2 46582  53.0551 334.4245 0001144  84.6518 275.4602 15.06430941148779"},{"ARG_OF_PERICENTER":"97.0523","BSTAR":"0.00115460000000","MEAN_MOTION":"15.06427095","PERIOD":"95.590","TLE_LINE2":"2 46583  53.0554 354.2010 0000938  97.0523 263.0573 15.06427095148492","OBJECT_NAME":"STARLINK-1729","GP_ID":"233723390","RCS_SIZE":"LARGE","REF_FRAME":"TEME","OBJECT_TYPE":"PAYLOAD","MEAN_ELEMENT_THEORY":"SGP4","FILE":"3930737","EPHEMERIS_TYPE":"0","EPOCH":"2023-06-11T19:34:59.846880","ECCENTRICITY":"0.00009380","MEAN_MOTION_DOT":"0.00016971","PERIAPSIS":"546.481","RA_OF_ASC_NODE":"354.2010","MEAN_ANOMALY":"263.0573","NORAD_CAT_ID":"46583","LAUNCH_DATE":"2020-10-06","MEAN_MOTION_DDOT":"0.0000000000000","OBJECT_ID":"2020-070BD","CENTER_NAME":"EARTH","ELEMENT_SET_NO":"999","TLE_LINE1":"1 46583U 20070BD  23162.81597045  .00016971  00000-0  11546-2 0  9991","COUNTRY_CODE":"US","APOAPSIS":"547.780","DECAY_DATE":null,"CLASSIFICATION_TYPE":"U","SEMIMAJOR_AXIS":"6925.266","INCLINATION":"53.0554","TIME_SYSTEM":"UTC","SITE":"AFETR","REV_AT_EPOCH":"14849"},{"REF_FRAME":"TEME","OBJECT_TYPE":"PAYLOAD","MEAN_ELEMENT_THEORY":"SGP4","FILE":"3930737","EPHEMERIS_TYPE":"0","EPOCH":"2023-06-11T18:28:39.196704","OBJECT_NAME":"STARLINK-1732","TLE_LINE2":"2 46584  53.0552 334.4093 0000828  52.5779 307.5285 15.06430766148773","GP_ID":"233724140","RCS_SIZE":"LARGE","MEAN_MOTION":"15.06430766","PERIOD":"95.590","ARG_OF_PERICENTER":"52.5779","BSTAR":"0.00149940000000","TIME_SYSTEM":"UTC","SITE":"AFETR","REV_AT_EPOCH":"14877","TLE_LINE1":"1 46584U 20070BE  23162.76989811  .00022141  00000-0  14994-2 0  9998","ELEMENT_SET_NO":"999","COUNTRY_CODE":"US","APOAPSIS":"547.693","DECAY_DATE":null,"SEMIMAJOR_AXIS":"6925.254","CLASSIFICATION_TYPE":"U","INCLINATION":"53.0552","NORAD_CAT_ID":"46584","LAUNCH_DATE":"2020-10-06","MEAN_MOTION_DDOT":"0.0000000000000","OBJECT_ID":"2020-070BE","CENTER_NAME":"EARTH","ECCENTRICITY":"0.00008280","MEAN_MOTION_DOT":"0.00022141","PERIAPSIS":"546.546","RA_OF_ASC_NODE":"334.4093","MEAN_ANOMALY":"307.5285"},{"GP_ID":"233722392","OBJECT_NAME":"STARLINK-1736","TLE_LINE2":"2 46585  53.0546 334.0260 0001068  83.8296 276.2814 15.06422973148789","RCS_SIZE":"LARGE","FILE":"3930737","MEAN_ELEMENT_THEORY":"SGP4","OBJECT_TYPE":"PAYLOAD","REF_FRAME":"TEME","EPOCH":"2023-06-11T20:29:22.411104","EPHEMERIS_TYPE":"0","BSTAR":"0.00129990000000","ARG_OF_PERICENTER":"83.8296","MEAN_MOTION":"15.06422973","PERIOD":"95.591","APOAPSIS":"547.883","COUNTRY_CODE":"US","TLE_LINE1":"1 46585U 20070BF  23162.85373161  .00019145  00000-0  12999-2 0  9997","ELEMENT_SET_NO":"999","INCLINATION":"53.0546","SEMIMAJOR_AXIS":"6925.278","CLASSIFICATION_TYPE":"U","DECAY_DATE":null,"TIME_SYSTEM":"UTC","REV_AT_EPOCH":"14878","SITE":"AFETR","MEAN_MOTION_DOT":"0.00019145","ECCENTRICITY":"0.00010680","MEAN_ANOMALY":"276.2814","RA_OF_ASC_NODE":"334.0260","PERIAPSIS":"546.404","LAUNCH_DATE":"2020-10-06","NORAD_CAT_ID":"46585","CENTER_NAME":"EARTH","OBJECT_ID":"2020-070BF","MEAN_MOTION_DDOT":"0.0000000000000"},{"LAUNCH_DATE":"2020-10-06","NORAD_CAT_ID":"46586","CENTER_NAME":"EARTH","OBJECT_ID":"2020-070BG","MEAN_MOTION_DDOT":"0.0000000000000","MEAN_MOTION_DOT":"0.00025684","ECCENTRICITY":"0.00009610","MEAN_ANOMALY":"300.0837","RA_OF_ASC_NODE":"334.3811","PERIAPSIS":"546.465","TIME_SYSTEM":"UTC","REV_AT_EPOCH":"14877","SITE":"AFETR","APOAPSIS":"547.796","COUNTRY_CODE":"US","ELEMENT_SET_NO":"999","TLE_LINE1":"1 46586U 20070BG  23162.77727096  .00025684  00000-0  17356-2 0  9996","INCLINATION":"53.0541","CLASSIFICATION_TYPE":"U","SEMIMAJOR_AXIS":"6925.266","DECAY_DATE":null,"MEAN_MOTION":"15.06426966","PERIOD":"95.590","BSTAR":"0.00173560000000","ARG_OF_PERICENTER":"60.0248","FILE":"3930737","MEAN_ELEMENT_THEORY":"SGP4","OBJECT_TYPE":"PAYLOAD","REF_FRAME":"TEME","EPOCH":"2023-06-11T18:39:16.210944","EPHEMERIS_TYPE":"0","GP_ID":"233723143","OBJECT_NAME":"STARLINK-1737","TLE_LINE2":"2 46586  53.0541 334.3811 0000961  60.0248 300.0837 15.06426966148771","RCS_SIZE":"LARGE"},{"RCS_SIZE":"LARGE","TLE_LINE2":"2 46588  53.0553 333.8629 0001227  76.8444 283.2682 15.06430910148792","OBJECT_NAME":"STARLINK-1746","GP_ID":"233723891","EPHEMERIS_TYPE":"0","EPOCH":"2023-06-11T21:23:48.586848","REF_FRAME":"TEME","OBJECT_TYPE":"PAYLOAD","FILE":"3930737","MEAN_ELEMENT_THEORY":"SGP4","ARG_OF_PERICENTER":"76.8444","BSTAR":"0.00129510000000","PERIOD":"95.590","MEAN_MOTION":"15.06430910","DECAY_DATE":null,"SEMIMAJOR_AXIS":"6925.254","CLASSIFICATION_TYPE":"U","INCLINATION":"53.0553","TLE_LINE1":"1 46588U 20070BJ  23162.89153457  .00019078  00000-0  12951-2 0  9991","ELEMENT_SET_NO":"999","COUNTRY_CODE":"US","APOAPSIS":"547.969","SITE":"AFETR","REV_AT_EPOCH":"14879","TIME_SYSTEM":"UTC","PERIAPSIS":"546.269","RA_OF_ASC_NODE":"333.8629","MEAN_ANOMALY":"283.2682","ECCENTRICITY":"0.00012270","MEAN_MOTION_DOT":"0.00019078","MEAN_MOTION_DDOT":"0.0000000000000","OBJECT_ID":"2020-070BJ","CENTER_NAME":"EARTH","NORAD_CAT_ID":"46588","LAUNCH_DATE":"2020-10-06"}];
